NORAD_CAT_ID,OBJECT_NAME,OBJECT_TYPE,EPOCH,MEAN_MOTION,ECCENTRICITY,INCLINATION,RA_OF_ASC_NODE,ARG_OF_PERICENTER,MEAN_ANOMALY,BSTAR,MEAN_MOTION_DOT,MEAN_MOTION_DDOT,TLE_LINE0,TLE_LINE1,TLE_LINE2,SEMIMAJOR_AXIS,PERIOD,APOGEE,PERIGEE,DECAYED
53604.0,STARLINK-4690,PAYLOAD,2022-10-15 14:00:01,15.33978142,0.0001467,53.2172,51.572,57.4069,66.0856,-0.03489,-0.01067448,0.0,0 STARLINK-4690,1 53604U 22104S   22288.58334491 -.01067448  00000-0 -34890-1 0  9993,2 53604  53.2172  51.5720 0001467  57.4069  66.0856 15.33978142  7617,6842.094,93.874,464.963,462.956,0.0
53604.0,STARLINK-4690,PAYLOAD,2022-10-15 22:00:01,15.33219076,0.0001345,53.2172,50.0177,72.6281,92.2651,-0.035753,-0.01067687,0.0,0 STARLINK-4690,1 53604U 22104S   22288.91668981 -.01067687  00000-0 -35753-1 0  9998,2 53604  53.2172  50.0177 0001345  72.6281  92.2651 15.33219076  1305,6844.352,93.92,467.138,465.297,0.0
53604.0,STARLINK-4690,PAYLOAD,2022-10-16 14:00:01,15.31697936,0.0001395,53.2173,46.9146,71.1436,173.6222,-0.037383,-0.01064277,0.0,0 STARLINK-4690,1 53604U 22104S   22289.58334491 -.01064277  00000-0 -37383-1 0  9991,2 53604  53.2173  46.9146 0001395  71.1436 173.6222 15.31697936  7764,6848.8830000000025,94.013,471.704,469.793,0.0
53604.0,STARLINK-4690,PAYLOAD,2022-10-16 22:00:00,15.309420800000002,0.0001273,53.2172,45.3655,70.2232,213.1403,-0.038517,-0.01070299,0.0,0 STARLINK-4690,1 53604U 22104S   22289.91667824 -.01070299  00000-0 -38517-1 0  9998,2 53604  53.2172  45.3655 0001273  70.2232 213.1403 15.30942080  1307,6851.137,94.06,473.874,472.13,0.0
53604.0,STARLINK-4690,PAYLOAD,2022-10-17 14:00:01,15.29421623,0.0001213,53.2172,42.2733,70.9924,286.8311,-0.0402649999999999,-0.01067354,0.0,0 STARLINK-4690,1 53604U 22104S   22290.58334491 -.01067354  00000-0 -40265-1 0  9995,2 53604  53.2172  42.2733 0001213  70.9924 286.8311 15.29421623  7921,6855.677,94.153,478.374,476.711,0.0
53604.0,STARLINK-4690,PAYLOAD,2022-10-17 22:00:00,15.28673556,0.0001256,53.217,40.7303,65.0215,328.6575,-0.041888,-0.01083519,0.0,0 STARLINK-4690,1 53604U 22104S   22290.91667824 -.01083519  00000-0 -41888-1 0  9994,2 53604  53.2170  40.7303 0001256  65.0215 328.6575 15.28673556  1306,6857.9140000000025,94.199,480.64,478.917,0.0
53604.0,STARLINK-4690,PAYLOAD,2022-10-18 14:00:01,15.27143371,0.0001504,53.2173,37.6482,54.9054,47.7628,-0.0432009999999999,-0.01067634,0.0,0 STARLINK-4690,1 53604U 22104S   22291.58334491 -.01067634  00000-0 -43201-1 0  9990,2 53604  53.2173  37.6482 0001504  54.9054  47.7628 15.27143371  8071,6862.494000000002,94.294,485.391,483.327,0.0
53604.0,STARLINK-4690,PAYLOAD,2022-10-18 22:00:00,15.26382483,0.0001330999999999,53.2173,36.1094,72.842,62.9501,-0.0441,-0.01065038,0.0,0 STARLINK-4690,1 53604U 22104S   22291.91667824 -.01065038  00000-0 -44100-1 0  9991,2 53604  53.2173  36.1094 0001331  72.8420  62.9501 15.26382483  1304,6864.774,94.341,487.55300000000005,485.726,0.0
53604.0,STARLINK-4690,PAYLOAD,2022-10-19 14:00:01,15.24862619,0.0001605,53.2173,33.039,57.1159,142.1839,-0.046111,-0.01063666,0.0,0 STARLINK-4690,1 53604U 22104S   22292.58334491 -.01063666  00000-0 -46111-1 0  9995,2 53604  53.2173  33.0390 0001605  57.1159 142.1839 15.24862619  8223,6869.335,94.435,492.30300000000005,490.097,0.0
53604.0,STARLINK-4690,PAYLOAD,2022-10-19 22:00:00,15.24104607,0.0001406999999999,53.2173,31.5055,68.3269,161.358,-0.047298,-0.01066172,0.0,0 STARLINK-4690,1 53604U 22104S   22292.91667824 -.01066172  00000-0 -47298-1 0  9993,2 53604  53.2173  31.5055 0001407  68.3269 161.3580 15.24104607  1304,6871.611999999999,94.482,494.444,492.511,0.0
53604.0,STARLINK-4690,PAYLOAD,2022-10-20 14:00:01,15.22584263,0.0001496,53.2174,28.446,55.8111,231.9054,-0.04936,-0.01063479,0.0,0 STARLINK-4690,1 53604U 22104S   22293.58334491 -.01063479  00000-0 -49360-1 0  9997,2 53604  53.2174  28.4460 0001496  55.8111 231.9054 15.22584263  1303,6876.186,94.576,499.08,497.022,0.0
53604.0,STARLINK-4690,PAYLOAD,2022-10-20 22:00:00,15.21826558,0.0001399,53.2173,26.9176,53.8138,261.5497,-0.050662,-0.01066916,0.0,0 STARLINK-4690,1 53604U 22104S   22293.91667824 -.01066916  00000-0 -50662-1 0  9999,2 53604  53.2173  26.9176 0001399  53.8138 261.5497 15.21826558  1303,6878.468000000003,94.623,501.296,499.371,0.0
53604.0,STARLINK-4690,PAYLOAD,2022-10-21 14:00:01,15.20307288,0.0001359,53.2174,23.8689,58.4684,309.4503,-0.0529269999999999,-0.01065855,0.0,0 STARLINK-4690,1 53604U 22104S   22294.58334491 -.01065855  00000-0 -52927-1 0  9991,2 53604  53.2174  23.8689 0001359  58.4684 309.4503 15.20307288  1305,6883.05,94.718,505.85,503.98,0.0
53604.0,STARLINK-4690,PAYLOAD,2022-10-21 22:00:00,15.1955699,0.0001379,53.2174,22.3465,55.2646,337.559,-0.054825,-0.01092715,0.0,0 STARLINK-4690,1 53604U 22104S   22294.91667824 -.01092715  00000-0 -54825-1 0  9991,2 53604  53.2174  22.3465 0001379  55.2646 337.5590 15.19556990  1308,6885.316,94.764,508.13,506.231,0.0
53604.0,STARLINK-4690,PAYLOAD,2022-10-22 14:00:01,15.18034132,0.0001412,53.2178,19.3085,66.7279,13.1767,-0.056976,-0.01086846,0.0,0 STARLINK-4690,1 53604U 22104S   22295.58334491 -.01086846  00000-0 -56976-1 0  9993,2 53604  53.2178  19.3085 0001412  66.7279  13.1767 15.18034132  1304,6889.92,94.86,512.757,510.812,0.0
53604.0,STARLINK-4690,PAYLOAD,2022-10-22 22:00:00,15.17272203,0.000152,53.2175,17.7906,52.5304,49.547,-0.0580279999999999,-0.01083118,0.0,0 STARLINK-4690,1 53604U 22104S   22295.91667824 -.01083118  00000-0 -58028-1 0  9998,2 53604  53.2175  17.7906 0001520  52.5304  49.5470 15.17272203  1303,6892.226,94.907,515.139,513.043,0.0
53604.0,STARLINK-4690,PAYLOAD,2022-10-23 14:00:01,15.15750855,0.0001675,53.2177,14.7631,56.057,87.625,-0.060434,-0.01080078,0.0,0 STARLINK-4690,1 53604U 22104S   22296.58334491 -.01080078  00000-0 -60434-1 0  9999,2 53604  53.2177  14.7631 0001675  56.0570  87.6250 15.15750855  8838,6896.837,95.002,519.857,517.547,0.0
53604.0,STARLINK-4690,PAYLOAD,2022-10-23 22:00:00,15.14992059,0.0001571999999999,53.2176,13.2505,50.6591,112.4561,-0.061799,-0.01080747,0.0,0 STARLINK-4690,1 53604U 22104S   22296.91667824 -.01080747  00000-0 -61799-1 0  9993,2 53604  53.2176  13.2505 0001572  50.6591 112.4561 15.14992059  1300,6899.14,95.05,522.089,519.92,0.0
53604.0,STARLINK-4690,PAYLOAD,2022-10-24 14:00:01,15.13475324,0.0001605,53.2179,10.2342,58.8717,140.369,-0.064654,-0.01082918,0.0,0 STARLINK-4690,1 53604U 22104S   22297.58334491 -.01082918  00000-0 -64654-1 0  9993,2 53604  53.2179  10.2342 0001605  58.8717 140.3690 15.13475324  8980,6903.748000000001,95.145,526.721,524.505,0.0
53604.0,STARLINK-4690,PAYLOAD,2022-10-24 22:00:00,15.12714156,0.0001583,53.2177,8.7264,51.5597,164.3782,-0.065964,-0.01081522,0.0,0 STARLINK-4690,1 53604U 22104S   22297.91667824 -.01081522  00000-0 -65964-1 0  9994,2 53604  53.2177   8.7264 0001583  51.5597 164.3782 15.12714156  1309,6906.064,95.193,529.0219999999998,526.836,0.0
53604.0,STARLINK-4690,PAYLOAD,2022-10-25 14:00:01,15.11190569,0.0001629,53.2179,5.721,56.0249,190.5655,-0.068295,-0.01073604,0.0,0 STARLINK-4690,1 53604U 22104S   22298.58334491 -.01073604  00000-0 -68295-1 0  9991,2 53604  53.2179   5.7210 0001629  56.0249 190.5655 15.11190569  9138,6910.705,95.289,533.696,531.444,0.0
53604.0,STARLINK-4690,PAYLOAD,2022-10-25 22:00:01,15.10434992,0.0001569,53.2177,4.2182,51.7513,208.8589,-0.070257,-0.01080879,0.0,0 STARLINK-4690,1 53604U 22104S   22298.91668981 -.01080879  00000-0 -70257-1 0  9995,2 53604  53.2177   4.2182 0001569  51.7513 208.8589 15.10434992  1307,6913.009,95.337,535.9590000000002,533.79,0.0
53604.0,STARLINK-4690,PAYLOAD,2022-10-26 14:00:01,15.08921673,0.0001810999999999,53.2179,1.2233,57.2769,228.4853,-0.0085083,-0.00133499,0.0,0 STARLINK-4690,1 53604U 22104S   22299.58334491 -.00133499  00000-0 -85083-2 0  9995,2 53604  53.2179   1.2233 0001811  57.2769 228.4853 15.08921673  9288,6917.630999999999,95.432,540.749,538.243,0.0
53604.0,STARLINK-4690,PAYLOAD,2022-10-26 22:00:00,15.08837811,0.0001549,53.2175,359.7244,54.129,243.2677,-0.00013201,-2.388e-05,0.0,0 STARLINK-4690,1 53604U 22104S   22299.91667824 -.00002388  00000-0 -13201-3 0  9997,2 53604  53.2175 359.7244 0001549  54.1290 243.2677 15.08837811  9335,6917.887,95.438,540.8240000000002,538.68,0.0
53604.0,STARLINK-4690,PAYLOAD,2022-10-27 14:00:01,15.08818206,0.000174,53.2198,356.74,44.7979,275.8802,0.0029718,0.00047298,0.0,0 STARLINK-4690,1 53604U 22104S   22300.58335648  .00047298  00000-0  29718-2 0  9995,2 53604  53.2198 356.7400 0001740  44.7979 275.8802 15.08818206  1300,6917.946999999999,95.439,541.016,538.6080000000002,0.0
53604.0,STARLINK-4690,PAYLOAD,2022-10-27 22:00:00,15.08849221,0.0001595,53.2196,355.2421,49.3615,282.8454,-0.0020021,-0.00032018,0.0,0 STARLINK-4690,1 53604U 22104S   22300.91667824 -.00032018  00000-0 -20021-2 0  9990,2 53604  53.2196 355.2421 0001595  49.3615 282.8454 15.08849221  1303,6917.852,95.437,540.821,538.614,0.0
53604.0,STARLINK-4690,PAYLOAD,2022-10-28 08:00:01,15.08850216,0.0001701,53.2194,353.3725,50.9812,25.7765,-0.001084,-0.00017503,0.0,0 STARLINK-4690,1 53604U 22104S   22301.33335648 -.00017503  00000-0 -10840-2 0  9993,2 53604  53.2194 353.3725 0001701  50.9812  25.7765 15.08850216  9553,6917.849,95.437,540.891,538.5369999999998,0.0
53604.0,STARLINK-4690,PAYLOAD,2022-10-28 14:00:01,15.0883003,0.0001771999999999,53.2193,352.251,46.7794,308.6798,0.001653,0.0002611,0.0,0 STARLINK-4690,1 53604U 22104S   22301.58335648  .00026110  00000-0  16530-2 0  9994,2 53604  53.2193 352.2510 0001772  46.7794 308.6798 15.08830030  1308,6917.911,95.438,541.002,538.55,0.0
53604.0,STARLINK-4690,PAYLOAD,2022-10-28 22:00:01,15.08822312,0.0001571,53.2191,350.7529,50.3868,316.6789,0.0011287,0.00017712,0.0,0 STARLINK-4690,1 53604U 22104S   22301.91668981  .00017712  00000-0  11287-2 0  9992,2 53604  53.2191 350.7529 0001571  50.3868 316.6789 15.08822312  1302,6917.934,95.439,540.886,538.7130000000002,0.0
